[{"OBJECT_NAME":"NEXSAT-1","OBJECT_ID":"2024-024E","EPOCH":"2026-03-09T22:47:24.778176","MEAN_MOTION":15.32166372,"ECCENTRICITY":0.00099795,"INCLINATION":97.3124,"RA_OF_ASC_NODE":144.1918,"ARG_OF_PERICENTER":108.5709,"MEAN_ANOMALY":251.6617,"EPHEMERIS_TYPE":0,"CLASSIFICATION_TYPE":"U","NORAD_CAT_ID":58921,"ELEMENT_SET_NO":999,"REV_AT_EPOCH":11669,"BSTAR":0.00031433612,"MEAN_MOTION_DOT":9.702e-5,"MEAN_MOTION_DDOT":0},{"OBJECT_NAME":"STARLINK-33682","OBJECT_ID":"2025-069A","EPOCH":"2026-03-09T11:46:47.350848","MEAN_MOTION":15.30201384,"ECCENTRICITY":0.00012279,"INCLINATION":53.1574,"RA_OF_ASC_NODE":143.4505,"ARG_OF_PERICENTER":74.1805,"MEAN_ANOMALY":285.9331,"EPHEMERIS_TYPE":0,"CLASSIFICATION_TYPE":"U","NORAD_CAT_ID":63433,"ELEMENT_SET_NO":999,"REV_AT_EPOCH":5337,"BSTAR":0.00092580896,"MEAN_MOTION_DOT":0.00027162,"MEAN_MOTION_DDOT":0}]
